NORAD_CAT_ID,OBJECT_NAME,OBJECT_TYPE,EPOCH,MEAN_MOTION,ECCENTRICITY,INCLINATION,RA_OF_ASC_NODE,ARG_OF_PERICENTER,MEAN_ANOMALY,BSTAR,MEAN_MOTION_DOT,MEAN_MOTION_DDOT,TLE_LINE0,TLE_LINE1,TLE_LINE2,SEMIMAJOR_AXIS,PERIOD,APOGEE,PERIGEE,DECAYED
53922.0,STARLINK-5002,PAYLOAD,2023-02-06 06:02:57,15.088548,0.0001214,53.2186,335.1248,85.8748,274.2383,0.0007229,0.0001124,0.0,0 STARLINK-5002,1 53922U 22119AN  23037.25205671  .00011240  00000-0  72290-3 0  9990,2 53922  53.2186 335.1248 0001214  85.8748 274.2383 15.08854800 21621,6917.835,95.437,540.54,538.86,0.0
53922.0,STARLINK-5002,PAYLOAD,2023-02-06 18:46:02,15.08842162,0.0001295,53.2183,332.7454,87.4952,272.6189,0.00046198,7.073e-05,0.0,0 STARLINK-5002,1 53922U 22119AN  23037.78197798  .00007073  00000-0  46198-3 0  9995,2 53922  53.2183 332.7454 0001295  87.4952 272.6189 15.08842162 21280,6917.874,95.437,540.635,538.843,0.0
53922.0,STARLINK-5002,PAYLOAD,2023-02-07 04:18:21,15.08848034,0.0001346,53.2181,330.9619,88.234,271.8806,0.00032435,4.879e-05,0.0,0 STARLINK-5002,1 53922U 22119AN  23038.17941467  .00004879  00000-0  32435-3 0  9999,2 53922  53.2181 330.9619 0001346  88.2340 271.8806 15.08848034 21762,6917.856,95.437,540.652,538.79,0.0
53922.0,STARLINK-5002,PAYLOAD,2023-02-08 04:09:07,15.0885626,0.0001334,53.2184,326.5018,87.8576,272.2569,0.00026626,3.954e-05,0.0,0 STARLINK-5002,1 53922U 22119AN  23039.17300916  .00003954  00000-0  26626-3 0  9996,2 53922  53.2184 326.5018 0001334  87.8576 272.2569 15.08856260 21493,6917.831,95.437,540.619,538.773,0.0
53922.0,STARLINK-5002,PAYLOAD,2023-02-09 02:24:32,15.08838706,0.0001599,53.2184,322.3409,88.0455,272.072,0.00015727,2.216e-05,0.0,0 STARLINK-5002,1 53922U 22119AN  23040.10037949  .00002216  00000-0  15727-3 0  9994,2 53922  53.2184 322.3409 0001599  88.0455 272.0720 15.08838706 21631,6917.884,95.438,540.856,538.643,0.0
53922.0,STARLINK-5002,PAYLOAD,2023-02-09 05:35:18,15.08851765,0.00015,53.218,321.7461,83.9494,276.1669,0.00048032,7.367e-05,0.0,0 STARLINK-5002,1 53922U 22119AN  23040.23285760  .00007367  00000-0  48032-3 0  9991,2 53922  53.2180 321.7461 0001500  83.9494 276.1669 15.08851765 22073,6917.844,95.437,540.747,538.672,0.0
53922.0,STARLINK-5002,PAYLOAD,2023-02-09 21:29:10,15.08834929,0.0001496,53.2185,318.7728,78.6728,281.4432,0.00010163,1.33e-05,0.0,0 STARLINK-5002,1 53922U 22119AN  23040.89526474  .00001330  00000-0  10163-3 0  9991,2 53922  53.2185 318.7728 0001496  78.6728 281.4432 15.08834929 21759,6917.896,95.438,540.796,538.726,0.0
53922.0,STARLINK-5002,PAYLOAD,2023-02-10 03:50:43,15.08856108,0.0001444,53.2161,317.5823,70.8992,289.2157,0.00064767,0.00010039,0.0,0 STARLINK-5002,1 53922U 22119AN  23041.16022107  .00010039  00000-0  64767-3 0  9991,2 53922  53.2161 317.5823 0001444  70.8992 289.2157 15.08856108 22211,6917.831,95.437,540.695,538.697,0.0
53922.0,STARLINK-5002,PAYLOAD,2023-02-10 13:23:01,15.08843549,0.000104,53.2179,315.7974,68.7872,291.3232,0.00046717,7.156e-05,0.0,0 STARLINK-5002,1 53922U 22119AN  23041.55765998  .00007156  00000-0  46717-3 0  9997,2 53922  53.2179 315.7974 0001040  68.7872 291.3232 15.08843549 21854,6917.87,95.437,540.454,539.015,0.0
53922.0,STARLINK-5002,PAYLOAD,2023-02-10 19:44:34,15.08848148,0.0001574,53.2174,314.6102,68.4719,291.6441,0.00022295,3.263e-05,0.0,0 STARLINK-5002,1 53922U 22119AN  23041.82261819  .00003263  00000-0  22295-3 0  9990,2 53922  53.2174 314.6102 0001574  68.4719 291.6441 15.08848148 22316,6917.855,95.437,540.809,538.632,0.0
53922.0,STARLINK-5002,PAYLOAD,2023-02-11 02:06:06,15.08869925,0.0001492,53.2174,313.4166,82.5716,277.5446,0.00086738,0.00013555,0.0,0 STARLINK-5002,1 53922U 22119AN  23042.08757151  .00013555  00000-0  86738-3 0  9995,2 53922  53.2174 313.4166 0001492  82.5716 277.5446 15.08869925 21937,6917.789,95.436,540.686,538.622,0.0
53922.0,STARLINK-5002,PAYLOAD,2023-02-11 05:16:52,15.0888579,0.0001561,53.2177,312.8221,83.6629,276.4541,0.0017245,0.00027299,0.0,0 STARLINK-5002,1 53922U 22119AN  23042.22004729  .00027299  00000-0  17245-2 0  9993,2 53922  53.2177 312.8221 0001561  83.6629 276.4541 15.08885790 21951,6917.74,95.435,540.685,538.526,0.0
53922.0,STARLINK-5002,PAYLOAD,2023-02-11 17:59:57,15.08843929,0.0001777,53.2166,310.4457,89.4561,270.6635,-0.00018727,-3.268e-05,0.0,0 STARLINK-5002,1 53922U 22119AN  23042.74997608 -.00003268  00000-0 -18727-3 0  9996,2 53922  53.2166 310.4457 0001777  89.4561 270.6635 15.08843929 22030,6917.868,95.437,540.963,538.504,0.0
53922.0,STARLINK-5002,PAYLOAD,2023-02-12 03:32:16,15.08862536,0.0001104,53.2165,308.6604,59.5165,300.5936,0.0026761,0.00042586,0.0,0 STARLINK-5002,1 53922U 22119AN  23043.14741704  .00042586  00000-0  26761-2 0  9995,2 53922  53.2165 308.6604 0001104  59.5165 300.5936 15.08862536 22092,6917.812,95.436,540.44,538.913,0.0
53922.0,STARLINK-5002,PAYLOAD,2023-02-12 17:50:45,15.08850201,8.63e-05,53.2174,305.9835,88.8439,271.2652,0.0020289,0.00032159,0.0,0 STARLINK-5002,1 53922U 22119AN  23043.74358496  .00032159  00000-0  20289-2 0  9997,2 53922  53.2174 305.9835 0000863  88.8439 271.2652 15.08850201 22183,6917.849,95.437,540.311,539.117,0.0
53922.0,STARLINK-5002,PAYLOAD,2023-02-13 03:23:04,15.08850415,9.06e-05,53.2175,304.1992,88.3102,271.7994,0.0021025,0.00033341,0.0,0 STARLINK-5002,1 53922U 22119AN  23044.14102835  .00033341  00000-0  21025-2 0  9999,2 53922  53.2175 304.1992 0000906  88.3102 271.7994 15.08850415 22247,6917.849,95.437,540.34,539.087,0.0
53922.0,STARLINK-5002,PAYLOAD,2023-02-13 09:44:37,15.08843018,0.0001275,53.2177,303.0092,90.4666,269.6472,0.0014595,0.00023018,0.0,0 STARLINK-5002,1 53922U 22119AN  23044.40599123  .00023018  00000-0  14595-2 0  9992,2 53922  53.2177 303.0092 0001275  90.4666 269.6472 15.08843018 22289,6917.871,95.437,540.618,538.854,0.0
53922.0,STARLINK-5002,PAYLOAD,2023-02-14 03:13:52,15.08845698,0.0001184,53.2166,299.7382,71.6325,288.4796,0.00057832,8.929e-05,0.0,0 STARLINK-5002,1 53922U 22119AN  23045.13463084  .00008929  00000-0  57832-3 0  9995,2 53922  53.2166 299.7382 0001184  71.6325 288.4796 15.08845698 22398,6917.863,95.437,540.547,538.909,0.0
53922.0,STARLINK-5002,PAYLOAD,2023-02-14 09:35:24,15.08837928,0.0001228,53.2164,298.5482,67.8484,292.2638,0.00012833,1.755e-05,0.0,0 STARLINK-5002,1 53922U 22119AN  23045.39959233  .00001755  00000-0  12833-3 0  9991,2 53922  53.2164 298.5482 0001228  67.8484 292.2638 15.08837928 22436,6917.887,95.438,540.601,538.902,0.0
53922.0,STARLINK-5002,PAYLOAD,2023-02-14 17:32:20,15.08832632,0.0001122,53.2163,297.0625,86.6062,273.5058,9.2465e-05,1.184e-05,0.0,0 STARLINK-5002,1 53922U 22119AN  23045.73079636  .00001184  00000-0  92465-4 0  9995,2 53922  53.2163 297.0625 0001122  86.6062 273.5058 15.08832632 22909,6917.903,95.438,540.544,538.992,0.0
53922.0,STARLINK-5002,PAYLOAD,2023-02-15 09:26:11,15.08850408,9.73e-05,53.2166,294.0895,69.4203,290.6894,0.00038116,5.785e-05,0.0,0 STARLINK-5002,1 53922U 22119AN  23046.39319027  .00005785  00000-0  38116-3 0  9992,2 53922  53.2166 294.0895 0000973  69.4203 290.6894 15.08850408 23008,6917.849,95.437,540.387,539.04,0.0
53922.0,STARLINK-5002,PAYLOAD,2023-02-15 17:23:07,15.08840666,0.0001415,53.2173,292.6035,73.5609,286.5538,9.6163e-05,1.243e-05,0.0,0 STARLINK-5002,1 53922U 22119AN  23046.72439403  .00001243  00000-0  96163-4 0  9992,2 53922  53.2173 292.6035 0001415  73.5609 286.5538 15.08840666 22636,6917.878,95.438,540.722,538.764,0.0
53922.0,STARLINK-5002,PAYLOAD,2023-02-15 22:09:16,15.08850138,0.0001377,53.2166,291.7091,86.4581,273.6568,0.00028906,4.317e-05,0.0,0 STARLINK-5002,1 53922U 22119AN  23046.92310784  .00004317  00000-0  28906-3 0  9998,2 53922  53.2166 291.7091 0001377  86.4581 273.6568 15.08850138 23084,6917.849,95.437,540.667,538.762,0.0
53922.0,STARLINK-5002,PAYLOAD,2023-02-15 23:44:39,15.08856878,0.0001309,53.2153,291.4127,74.4234,285.6902,0.00040215,6.121e-05,0.0,0 STARLINK-5002,1 53922U 22119AN  23046.98934498  .00006121  00000-0  40215-3 0  9990,2 53922  53.2153 291.4127 0001309  74.4234 285.6902 15.08856878 22670,6917.829,95.436,540.599,538.788,0.0
53922.0,STARLINK-5002,PAYLOAD,2023-02-16 22:00:03,15.08844513,0.0001166,53.2165,287.2506,78.507,281.6053,3.1036e-05,2.06e-06,0.0,0 STARLINK-5002,1 53922U 22119AN  23047.91671037  .00000206  00000-0  31036-4 0  9991,2 53922  53.2165 287.2506 0001166  78.5070 281.6053 15.08844513 23230,6917.867,95.437,540.538,538.925,0.0
53922.0,STARLINK-5002,PAYLOAD,2023-02-17 01:10:49,15.08845984,0.0001235,53.2165,286.6561,74.37,285.7429,8.9921e-05,1.144e-05,0.0,0 STARLINK-5002,1 53922U 22119AN  23048.04918894  .00001144  00000-0  89921-4 0  9999,2 53922  53.2165 286.6561 0001235  74.3700 285.7429 15.08845984 22835,6917.862,95.437,540.581,538.873,0.0
53922.0,STARLINK-5002,PAYLOAD,2023-02-17 09:07:45,15.08839306,0.0001162,53.2164,285.1687,80.2179,279.8944,-1.1724e-05,-4.74e-06,0.0,0 STARLINK-5002,1 53922U 22119AN  23048.38039106 -.00000474  00000-0 -11724-4 0  9999,2 53922  53.2164 285.1687 0001162  80.2179 279.8944 15.08839306 23302,6917.883,95.438,540.551,538.944,0.0
53922.0,STARLINK-5002,PAYLOAD,2023-02-17 15:29:18,15.08832267,0.0001554,53.2153,283.9801,80.7965,279.3203,-2.1636e-06,-3.22e-06,0.0,0 STARLINK-5002,1 53922U 22119AN  23048.64535782 -.00000322  00000-0 -21636-5 0  9995,2 53922  53.2153 283.9801 0001554  80.7965 279.3203 15.08832267 22926,6917.904,95.438,540.844,538.694,0.0
53922.0,STARLINK-5002,PAYLOAD,2023-02-17 21:50:51,15.08831304,0.0001387,53.2153,282.7899,83.7386,276.3764,-1.6134e-05,-5.45e-06,0.0,0 STARLINK-5002,1 53922U 22119AN  23048.91031904 -.00000545  00000-0 -16134-4 0  9995,2 53922  53.2153 282.7899 0001387  83.7386 276.3764 15.08831304 23385,6917.907,95.438,540.731,538.812,0.0
53922.0,STARLINK-5002,PAYLOAD,2023-02-18 10:33:56,15.08836422,0.00013,53.2153,280.4115,97.8146,262.2994,0.00015347,2.155e-05,0.0,0 STARLINK-5002,1 53922U 22119AN  23049.44023944  .00002155  00000-0  15347-3 0  9990,2 53922  53.2153 280.4115 0001300  97.8146 262.2994 15.08836422 23460,6917.891,95.438,540.656,538.857,0.0
